{"type": "FeatureCollection", "features": [ {"type": "Feature", "properties": {"norad_id": 54031, "name": "COSMOS 2559 (707K)", "group": "gnss", "lat": -2.8224664030975957, "lon": -40.75173084340486, "alt_km": 19159.099625500472, "timestamp": "2025-12-27T15:27:11.434842+00:00", "meta": {"OBJECT_NAME": "COSMOS 2559 (707K)", "OBJECT_ID": "2022-130A", "EPOCH": "2025-12-27T04:17:20.582016", "MEAN_MOTION": 2.13101172, "ECCENTRICITY": 0.00114466, "INCLINATION": 64.3739, "RA_OF_ASC_NODE": 320.6332, "ARG_OF_PERICENTER": 191.4904, "MEAN_ANOMALY": 168.488, "EPHEMERIS_TYPE": 0, "CLASSIFICATION_TYPE": "U", "NORAD_CAT_ID": 54031, "ELEMENT_SET_NO": 999, "REV_AT_EPOCH": 2502, "BSTAR": 0, "MEAN_MOTION_DOT": -3.9e-07, "MEAN_MOTION_DDOT": 0}, "tle": {"line1": "1 54031U 22130A   25361.17871044 -.00000039  00000+0  00000+0 0  9991", "line2": "2 54031  64.3739 320.6332 0011446 191.4904 168.4880  2.13101172 25022"}}, "geometry": {"type": "Point", "coordinates": [-40.75173084340486, -2.8224664030975957]}}, {"type": "Feature", "properties": {"norad_id": 54377, "name": "COSMOS 2564 (761)", "group": "gnss", "lat": 54.106771128213694, "lon": -22.33493007566581, "alt_km": 19122.702408408346, "timestamp": "2025-12-27T15:27:11.434855+00:00", "meta": {"OBJECT_NAME": "COSMOS 2564 (761)", "OBJECT_ID": "2022-161A", "EPOCH": "2025-12-27T00:32:50.727840", "MEAN_MOTION": 2.13101958, "ECCENTRICITY": 0.00085395, "INCLINATION": 64.7392, "RA_OF_ASC_NODE": 198.4243, "ARG_OF_PERICENTER": 203.4322, "MEAN_ANOMALY": 156.5843, "EPHEMERIS_TYPE": 0, "CLASSIFICATION_TYPE": "U", "NORAD_CAT_ID": 54377, "ELEMENT_SET_NO": 999, "REV_AT_EPOCH": 2396, "BSTAR": 0, "MEAN_MOTION_DOT": 1.19e-06, "MEAN_MOTION_DDOT": 0}, "tle": {"line1": "1 54377U 22161A   25361.02280935  .00000119  00000+0  00000+0 0  9993", "line2": "2 54377  64.7392 198.4243 0008539 203.4322 156.5843  2.13101958 23963"}}, "geometry": {"type": "Point", "coordinates": [-22.33493007566581, 54.106771128213694]}}, {"type": "Feature", "properties": {"norad_id": 55268, "name": "GPS BIII-6  (PRN 28)", "group": "gnss", "lat": 28.52253303535454, "lon": -47.03612551373201, "alt_km": 20187.897592629575, "timestamp": "2025-12-27T15:27:11.434867+00:00", "meta": {"OBJECT_NAME": "GPS BIII-6  (PRN 28)", "OBJECT_ID": "2023-009A", "EPOCH": "2025-12-22T10:59:58.065216", "MEAN_MOTION": 2.00554901, "ECCENTRICITY": 0.00037047, "INCLINATION": 55.1065, "RA_OF_ASC_NODE": 155.4638, "ARG_OF_PERICENTER": 355.7912, "MEAN_ANOMALY": 4.4255, "EPHEMERIS_TYPE": 0, "CLASSIFICATION_TYPE": "U", "NORAD_CAT_ID": 55268, "ELEMENT_SET_NO": 999, "REV_AT_EPOCH": 2170, "BSTAR": 0, "MEAN_MOTION_DOT": 7.4e-07, "MEAN_MOTION_DDOT": 0}, "tle": {"line1": "1 55268U 23009A   25356.45831094  .00000074  00000+0  00000+0 0  9994", "line2": "2 55268  55.1065 155.4638 0003704 355.7912   4.4255  2.00554901 21704"}}, "geometry": {"type": "Point", "coordinates": [-47.03612551373201, 28.52253303535454]}}, {"type": "Feature", "properties": {"norad_id": 56564, "name": "BEIDOU-3 G4 (C62)", "group": "gnss", "lat": -0.05295636228919245, "lon": 128.18550897730225, "alt_km": 35779.203305323164, "timestamp": "2025-12-27T15:27:11.434878+00:00", "meta": {"OBJECT_NAME": "BEIDOU-3 G4 (C62)", "OBJECT_ID": "2023-066A", "EPOCH": "2025-12-27T05:12:12.626784", "MEAN_MOTION": 1.00270521, "ECCENTRICITY": 0.00024938, "INCLINATION": 0.7849, "RA_OF_ASC_NODE": 303.1966, "ARG_OF_PERICENTER": 231.2538, "MEAN_ANOMALY": 159.6005, "EPHEMERIS_TYPE": 0, "CLASSIFICATION_TYPE": "U", "NORAD_CAT_ID": 56564, "ELEMENT_SET_NO": 999, "REV_AT_EPOCH": 967, "BSTAR": 0, "MEAN_MOTION_DOT": -8.9e-07, "MEAN_MOTION_DDOT": 0}, "tle": {"line1": "1 56564U 23066A   25361.21681281 -.00000089  00000+0  00000+0 0  9995", "line2": "2 56564   0.7849 303.1966 0002493 231.2538 159.6005  1.00270521  9672"}}, "geometry": {"type": "Point", "coordinates": [128.18550897730225, -0.05295636228919245]}}, {"type": "Feature", "properties": {"norad_id": 56759, "name": "NVS-01 (IRNSS-1J)", "group": "gnss", "lat": -1.137650905306963, "lon": 97.67479632451584, "alt_km": 35824.566511258075, "timestamp": "2025-12-27T15:27:11.434892+00:00", "meta": {"OBJECT_NAME": "NVS-01 (IRNSS-1J)", "OBJECT_ID": "2023-076A", "EPOCH": "2025-12-27T06:46:11.127072", "MEAN_MOTION": 1.00269645, "ECCENTRICITY": 0.00090046, "INCLINATION": 2.5843, "RA_OF_ASC_NODE": 251.0823, "ARG_OF_PERICENTER": 17.9289, "MEAN_ANOMALY": 58.1051, "EPHEMERIS_TYPE": 0, "CLASSIFICATION_TYPE": "U", "NORAD_CAT_ID": 56759, "ELEMENT_SET_NO": 999, "REV_AT_EPOCH": 939, "BSTAR": 0, "MEAN_MOTION_DOT": -3.12e-06, "MEAN_MOTION_DDOT": 0}, "tle": {"line1": "1 56759U 23076A   25361.28207323 -.00000312  00000+0  00000+0 0  9999", "line2": "2 56759   2.5843 251.0823 0009004  17.9289  58.1051  1.00269645  9390"}}, "geometry": {"type": "Point", "coordinates": [97.67479632451584, -1.137650905306963]}}, {"type": "Feature", "properties": {"norad_id": 57517, "name": "COSMOS 2569 (703K)", "group": "gnss", "lat": 60.69280884245174, "lon": -156.9100355355134, "alt_km": 19151.253629136325, "timestamp": "2025-12-27T15:27:11.434906+00:00", "meta": {"OBJECT_NAME": "COSMOS 2569 (703K)", "OBJECT_ID": "2023-114A", "EPOCH": "2025-12-27T00:52:02.160768", "MEAN_MOTION": 2.13103934, "ECCENTRICITY": 0.00110398, "INCLINATION": 65.2014, "RA_OF_ASC_NODE": 78.4304, "ARG_OF_PERICENTER": 287.2469, "MEAN_ANOMALY": 72.6785, "EPHEMERIS_TYPE": 0, "CLASSIFICATION_TYPE": "U", "NORAD_CAT_ID": 57517, "ELEMENT_SET_NO": 999, "REV_AT_EPOCH": 1859, "BSTAR": 0, "MEAN_MOTION_DOT": -1.2e-07, "MEAN_MOTION_DDOT": 0}, "tle": {"line1": "1 57517U 23114A   25361.03613612 -.00000012  00000+0  00000+0 0  9997", "line2": "2 57517  65.2014  78.4304 0011039 287.2469  72.6785  2.13103934 18597"}}, "geometry": {"type": "Point", "coordinates": [-156.9100355355134, 60.69280884245174]}}, {"type": "Feature", "properties": {"norad_id": 58654, "name": "BEIDOU-3 M28 (C50)", "group": "gnss", "lat": 48.59687392959051, "lon": -162.80586259614435, "alt_km": 21530.295773628182, "timestamp": "2025-12-27T15:27:11.434917+00:00", "meta": {"OBJECT_NAME": "BEIDOU-3 M28 (C50)", "OBJECT_ID": "2023-207A", "EPOCH": "2025-12-26T09:34:30.666720", "MEAN_MOTION": 1.86229622, "ECCENTRICITY": 0.0002968, "INCLINATION": 55.596, "RA_OF_ASC_NODE": 68.1388, "ARG_OF_PERICENTER": 276.5456, "MEAN_ANOMALY": 83.472, "EPHEMERIS_TYPE": 0, "CLASSIFICATION_TYPE": "U", "NORAD_CAT_ID": 58654, "ELEMENT_SET_NO": 999, "REV_AT_EPOCH": 1362, "BSTAR": 0, "MEAN_MOTION_DOT": -3.3e-07, "MEAN_MOTION_DDOT": 0}, "tle": {"line1": "1 58654U 23207A   25360.39896605 -.00000033  00000+0  00000+0 0  9999", "line2": "2 58654  55.5960  68.1388 0002968 276.5456  83.4720  1.86229622 13628"}}, "geometry": {"type": "Point", "coordinates": [-162.80586259614435, 48.59687392959051]}}, {"type": "Feature", "properties": {"norad_id": 58655, "name": "BEIDOU-3 M26 (C48)", "group": "gnss", "lat": -51.016278502542086, "lon": -54.16368218430096, "alt_km": 21521.945069979014, "timestamp": "2025-12-27T15:27:11.434928+00:00", "meta": {"OBJECT_NAME": "BEIDOU-3 M26 (C48)", "OBJECT_ID": "2023-207B", "EPOCH": "2025-12-27T06:29:22.403616", "MEAN_MOTION": 1.86231136, "ECCENTRICITY": 0.00042923, "INCLINATION": 55.5988, "RA_OF_ASC_NODE": 68.0955, "ARG_OF_PERICENTER": 262.2645, "MEAN_ANOMALY": 97.7357, "EPHEMERIS_TYPE": 0, "CLASSIFICATION_TYPE": "U", "NORAD_CAT_ID": 58655, "ELEMENT_SET_NO": 999, "REV_AT_EPOCH": 1362, "BSTAR": 0, "MEAN_MOTION_DOT": -3.8e-07, "MEAN_MOTION_DDOT": 0}, "tle": {"line1": "1 58655U 23207B   25361.27039819 -.00000038  00000+0  00000+0 0  9999", "line2": "2 58655  55.5988  68.0955 0004292 262.2645  97.7357  1.86231136 13629"}}, "geometry": {"type": "Point", "coordinates": [-54.16368218430096, -51.016278502542086]}}, {"type": "Feature", "properties": {"norad_id": 59598, "name": "GSAT0225 (GALILEO 29)", "group": "gnss", "lat": 48.04773746937507, "lon": 156.9707923680589, "alt_km": 23220.188335517654, "timestamp": "2025-12-27T15:27:11.434939+00:00", "meta": {"OBJECT_NAME": "GSAT0225 (GALILEO 29)", "OBJECT_ID": "2024-079A", "EPOCH": "2025-12-25T18:42:53.226144", "MEAN_MOTION": 1.70474814, "ECCENTRICITY": 0.00021774, "INCLINATION": 55.0084, "RA_OF_ASC_NODE": 105.9312, "ARG_OF_PERICENTER": 191.4017, "MEAN_ANOMALY": 169.7242, "EPHEMERIS_TYPE": 0, "CLASSIFICATION_TYPE": "U", "NORAD_CAT_ID": 59598, "ELEMENT_SET_NO": 999, "REV_AT_EPOCH": 1036, "BSTAR": 0, "MEAN_MOTION_DOT": 1.7e-07, "MEAN_MOTION_DDOT": 0}, "tle": {"line1": "1 59598U 24079A   25359.77978271  .00000017  00000+0  00000+0 0  9996", "line2": "2 59598  55.0084 105.9312 0002177 191.4017 169.7242  1.70474814 10368"}}, "geometry": {"type": "Point", "coordinates": [156.9707923680589, 48.04773746937507]}}, {"type": "Feature", "properties": {"norad_id": 59600, "name": "GSAT0227 (GALILEO 30)", "group": "gnss", "lat": -37.072046325793174, "lon": 73.96734679091115, "alt_km": 23234.67774406175, "timestamp": "2025-12-27T15:27:11.434954+00:00", "meta": {"OBJECT_NAME": "GSAT0227 (GALILEO 30)", "OBJECT_ID": "2024-079C", "EPOCH": "2025-12-21T20:31:35.455872", "MEAN_MOTION": 1.70474868, "ECCENTRICITY": 0.00028355, "INCLINATION": 55.0019, "RA_OF_ASC_NODE": 106.0394, "ARG_OF_PERICENTER": 117.3615, "MEAN_ANOMALY": 242.6419, "EPHEMERIS_TYPE": 0, "CLASSIFICATION_TYPE": "U", "NORAD_CAT_ID": 59600, "ELEMENT_SET_NO": 999, "REV_AT_EPOCH": 1034, "BSTAR": 0, "MEAN_MOTION_DOT": 4e-08, "MEAN_MOTION_DDOT": 0}, "tle": {"line1": "1 59600U 24079C   25355.85527148  .00000004  00000+0  00000+0 0  9994", "line2": "2 59600  55.0019 106.0394 0002835 117.3615 242.6419  1.70474868 10348"}}, "geometry": {"type": "Point", "coordinates": [73.96734679091115, -37.072046325793174]}}]}